NORAD_CAT_ID,OBJECT_NAME,OBJECT_TYPE,EPOCH,MEAN_MOTION,ECCENTRICITY,INCLINATION,RA_OF_ASC_NODE,ARG_OF_PERICENTER,MEAN_ANOMALY,BSTAR,MEAN_MOTION_DOT,MEAN_MOTION_DDOT,TLE_LINE0,TLE_LINE1,TLE_LINE2,SEMIMAJOR_AXIS,PERIOD,APOGEE,PERIGEE,DECAYED
52689.0,STARLINK-4078,PAYLOAD,2022-11-09 01:59:13,15.08870601,0.0001808,53.2193,205.6872,39.3216,320.7907,0.00014134,1.964e-05,0.0,0 STARLINK-4078,1 52689U 22053AK  22313.08279138  .00001964  00000-0  14134-3 0  9997,2 52689  53.2193 205.6872 0001808  39.3216 320.7907 15.08870601 27087,6917.7869999999975,95.436,540.903,538.401,0.0
52689.0,STARLINK-4078,PAYLOAD,2022-11-09 09:56:10,15.088481699999996,0.0002795,53.2181,204.2005,39.4681,320.6514,0.00014419,2.008e-05,0.0,0 STARLINK-4078,1 52689U 22053AK  22313.41400509  .00002008  00000-0  14419-3 0  9998,2 52689  53.2181 204.2005 0002795  39.4681 320.6514 15.08848170 27135,6917.855,95.437,541.654,537.7869999999998,0.0
52689.0,STARLINK-4078,PAYLOAD,2022-11-09 11:31:33,15.08848728,0.0002786,53.2173,203.9047,36.932,323.1863,0.00014353,1.997e-05,0.0,0 STARLINK-4078,1 52689U 22053AK  22313.48024443  .00001997  00000-0  14353-3 0  9997,2 52689  53.2173 203.9047 0002786  36.9320 323.1863 15.08848728 27549,6917.854,95.437,541.646,537.7909999999998,0.0
52689.0,STARLINK-4078,PAYLOAD,2022-11-09 21:03:53,15.08824548,0.0002114,53.2191,202.1206,36.7541,323.3596,-0.00012994,-2.355e-05,0.0,0 STARLINK-4078,1 52689U 22053AK  22313.87770635 -.00002355  00000-0 -12994-3 0  9991,2 52689  53.2191 202.1206 0002114  36.7541 323.3596 15.08824548 27601,6917.928000000001,95.439,541.255,538.33,0.0
52689.0,STARLINK-4078,PAYLOAD,2022-11-10 00:14:39,15.08829421,0.0002339,53.2195,201.5267,31.314,328.7991,-0.0001153,-2.122e-05,0.0,0 STARLINK-4078,1 52689U 22053AK  22314.01018455 -.00002122  00000-0 -11530-3 0  9990,2 52689  53.2195 201.5267 0002339  31.3140 328.7991 15.08829421 27221,6917.913000000001,95.438,541.396,538.16,0.0
52689.0,STARLINK-4078,PAYLOAD,2022-11-10 11:22:21,15.08843035,0.0002195,53.2191,199.4444,34.9372,325.1764,-0.00011904,-2.183e-05,0.0,0 STARLINK-4078,1 52689U 22053AK  22314.47385457 -.00002183  00000-0 -11904-3 0  9991,2 52689  53.2191 199.4444 0002195  34.9372 325.1764 15.08843035 27692,6917.871,95.437,541.255,538.2180000000002,0.0
52689.0,STARLINK-4078,PAYLOAD,2022-11-10 16:08:30,15.08843516,0.0002126,53.2192,198.5519,36.4541,323.6595,-8.6246e-05,-1.661e-05,0.0,0 STARLINK-4078,1 52689U 22053AK  22314.67257306 -.00001661  00000-0 -86246-4 0  9996,2 52689  53.2192 198.5519 0002126  36.4541 323.6595 15.08843516 27324,6917.87,95.437,541.205,538.264,0.0
52689.0,STARLINK-4078,PAYLOAD,2022-11-10 20:54:40,15.088381699999998,0.0002176,53.2192,197.6607,36.1973,323.9166,-0.00012695,-2.308e-05,0.0,0 STARLINK-4078,1 52689U 22053AK  22314.87129781 -.00002308  00000-0 -12695-3 0  9998,2 52689  53.2192 197.6607 0002176  36.1973 323.9166 15.08838170 27757,6917.886,95.438,541.256,538.246,0.0
52689.0,STARLINK-4078,PAYLOAD,2022-11-11 00:05:26,15.08830793,0.0002169,53.2182,197.0655,36.3681,323.7459,-0.0002017,-3.496e-05,0.0,0 STARLINK-4078,1 52689U 22053AK  22315.00377619 -.00003496  00000-0 -20170-3 0  9995,2 52689  53.2182 197.0655 0002169  36.3681 323.7459 15.08830793 27377,6917.909000000002,95.438,541.274,538.273,0.0
52689.0,STARLINK-4078,PAYLOAD,2022-11-11 11:13:08,15.08834717,0.0002342,53.2181,194.9843,35.2146,324.9,-8.413600000000001e-05,-1.627e-05,0.0,0 STARLINK-4078,1 52689U 22053AK  22315.46745815 -.00001627  00000-0 -84136-4 0  9999,2 52689  53.2181 194.9843 0002342  35.2146 324.9000 15.08834717 27845,6917.897,95.438,541.382,538.141,0.0
52689.0,STARLINK-4078,PAYLOAD,2022-11-11 20:45:27,15.08835323,0.000231,53.2182,193.2003,34.4804,325.6338,0.00042319,6.453e-05,0.0,0 STARLINK-4078,1 52689U 22053AK  22315.86490323  .00006453  00000-0  42319-3 0  9990,2 52689  53.2182 193.2003 0002310  34.4804 325.6338 15.08835323 27906,6917.895,95.438,541.3580000000002,538.1619999999998,0.0
52689.0,STARLINK-4078,PAYLOAD,2022-11-11 22:20:50,15.08839303,0.0002315,53.2181,192.9028,34.5404,325.5738,0.00046393,7.103e-05,0.0,0 STARLINK-4078,1 52689U 22053AK  22315.93114227  .00007103  00000-0  46393-3 0  9993,2 52689  53.2181 192.9028 0002315  34.5404 325.5738 15.08839303 27512,6917.8830000000025,95.438,541.349,538.146,0.0
52689.0,STARLINK-4078,PAYLOAD,2022-11-12 11:03:55,15.08842589,0.0002362,53.2175,190.5241,35.0613,325.0535,0.00033116,4.987e-05,0.0,0 STARLINK-4078,1 52689U 22053AK  22316.46106291  .00004987  00000-0  33116-3 0  9990,2 52689  53.2175 190.5241 0002362  35.0613 325.0535 15.08842589 27998,6917.871999999999,95.437,541.371,538.1030000000002,0.0
52689.0,STARLINK-4078,PAYLOAD,2022-11-12 22:11:37,15.08854211,0.0002374,53.2175,188.4428,34.5687,325.5459,0.00046253,7.084e-05,0.0,0 STARLINK-4078,1 52689U 22053AK  22316.92473836  .00007084  00000-0  46253-3 0  9990,2 52689  53.2175 188.4428 0002374  34.5687 325.5459 15.08854211 28063,6917.837,95.437,541.344,538.06,0.0
52689.0,STARLINK-4078,PAYLOAD,2022-11-13 10:54:42,15.08846577,0.0002241,53.2176,186.0644,36.9598,323.1548,0.00015852,2.236e-05,0.0,0 STARLINK-4078,1 52689U 22053AK  22317.45465911  .00002236  00000-0  15852-3 0  9999,2 52689  53.2176 186.0644 0002241  36.9598 323.1548 15.08846577 28146,6917.86,95.437,541.276,538.175,0.0
52689.0,STARLINK-4078,PAYLOAD,2022-11-13 18:51:38,15.08835281,0.0002373,53.2183,184.5785,30.468000000000004,329.645,-3.6914e-05,-8.76e-06,0.0,0 STARLINK-4078,1 52689U 22053AK  22317.78586469 -.00000876  00000-0 -36914-4 0  9990,2 52689  53.2183 184.5785 0002373  30.4680 329.6450 15.08835281 27793,6917.895,95.438,541.401,538.118,0.0
52689.0,STARLINK-4078,PAYLOAD,2022-11-14 10:45:30,15.08834857,0.0002287,53.218,181.6045,33.2377,326.8759,-6.0475e-05,-1.251e-05,0.0,0 STARLINK-4078,1 52689U 22053AK  22318.44826581 -.00001251  00000-0 -60475-4 0  9993,2 52689  53.2180 181.6045 0002287  33.2377 326.8759 15.08834857 28290,6917.896,95.438,541.3430000000002,538.179,0.0
52689.0,STARLINK-4078,PAYLOAD,2022-11-14 17:07:03,15.08831162,0.0002252,53.219,180.4148,33.4115,326.7019,-4.7008e-05,-1.036e-05,0.0,0 STARLINK-4078,1 52689U 22053AK  22318.71323358 -.00001036  00000-0 -47008-4 0  9995,2 52689  53.2190 180.4148 0002252  33.4115 326.7019 15.08831162 27930,6917.906999999997,95.438,541.33,538.214,0.0
52689.0,STARLINK-4078,PAYLOAD,2022-11-15 07:25:31,15.08837242,0.000233,53.2189,177.7385,32.9444,327.1693,-3.8943e-05,-9.08e-06,0.0,0 STARLINK-4078,1 52689U 22053AK  22319.30939112 -.00000908  00000-0 -38943-4 0  9997,2 52689  53.2189 177.7385 0002330  32.9444 327.1693 15.08837242 28025,6917.889,95.438,541.366,538.1419999999998,0.0
52689.0,STARLINK-4078,PAYLOAD,2022-11-15 12:11:40,15.08831567,0.0002295,53.2189,176.8462,31.7116,328.4014,0.00015458,2.172e-05,0.0,0 STARLINK-4078,1 52689U 22053AK  22319.50811272  .00002172  00000-0  15458-3 0  9993,2 52689  53.2189 176.8462 0002295  31.7116 328.4014 15.08831567 28456,6917.906,95.438,541.359,538.184,0.0
52689.0,STARLINK-4078,PAYLOAD,2022-11-15 20:08:36,15.08835665,0.0002347,53.218,175.3596,32.6036,327.51,0.00016751,2.378e-05,0.0,0 STARLINK-4078,1 52689U 22053AK  22319.83931254  .00002378  00000-0  16751-3 0  9997,2 52689  53.2180 175.3596 0002347  32.6036 327.5100 15.08835665 28503,6917.894,95.438,541.382,538.135,0.0
52689.0,STARLINK-4078,PAYLOAD,2022-11-16 08:51:41,15.08842378,0.0002394,53.2181,172.9808,32.8638,327.2503,0.00019611,2.834e-05,0.0,0 STARLINK-4078,1 52689U 22053AK  22320.36923031  .00002834  00000-0  19611-3 0  9996,2 52689  53.2181 172.9808 0002394  32.8638 327.2503 15.08842378 28182,6917.873000000001,95.437,541.394,538.082,0.0
52689.0,STARLINK-4078,PAYLOAD,2022-11-16 13:37:51,15.08838899,0.0002345,53.218,172.0887,33.9355,326.1787,0.00021168,3.082e-05,0.0,0 STARLINK-4078,1 52689U 22053AK  22320.56795253  .00003082  00000-0  21168-3 0  9997,2 52689  53.2180 172.0887 0002345  33.9355 326.1787 15.08838899 28616,6917.884,95.438,541.371,538.127,0.0
52689.0,STARLINK-4078,PAYLOAD,2022-11-16 18:24:00,15.08833683,0.0002308,53.2181,171.196,34.7434,325.3708,0.00011772,1.585e-05,0.0,0 STARLINK-4078,1 52689U 22053AK  22320.76667619  .00001585  00000-0  11772-3 0  9999,2 52689  53.2181 171.1960 0002308  34.7434 325.3708 15.08833683 28244,6917.9,95.438,541.361,538.168,0.0
52689.0,STARLINK-4078,PAYLOAD,2022-11-16 19:59:24,15.08833445,0.0002314,53.2182,170.8988,34.6085,325.5057,0.00010908,1.448e-05,0.0,0 STARLINK-4078,1 52689U 22053AK  22320.83291670  .00001448  00000-0  10908-3 0  9995,2 52689  53.2182 170.8988 0002314  34.6085 325.5057 15.08833445 28659,6917.9,95.438,541.366,538.165,0.0
52689.0,STARLINK-4078,PAYLOAD,2022-11-17 13:28:38,15.08838311,0.0002346,53.2182,167.628,35.2015,324.9132,8.4639e-05,1.059e-05,0.0,0 STARLINK-4078,1 52689U 22053AK  22321.56155654  .00001059  00000-0  84639-4 0  9998,2 52689  53.2182 167.6280 0002346  35.2015 324.9132 15.08838311 28769,6917.886,95.438,541.373,538.128,0.0
52689.0,STARLINK-4078,PAYLOAD,2022-11-17 15:04:01,15.08838839,0.000236,53.2182,167.3309,35.497,324.6179,7.004e-05,8.27e-06,0.0,0 STARLINK-4078,1 52689U 22053AK  22321.62779636  .00000827  00000-0  70040-4 0  9990,2 52689  53.2182 167.3309 0002360  35.4970 324.6179 15.08838839 28770,6917.884,95.438,541.382,538.116,0.0
52689.0,STARLINK-4078,PAYLOAD,2022-11-17 19:50:10,15.08840124,0.0002363,53.2182,166.4388,35.6285,324.4864,6.3893e-05,7.29e-06,0.0,0 STARLINK-4078,1 52689U 22053AK  22321.82651548  .00000729  00000-0  63893-4 0  9992,2 52689  53.2182 166.4388 0002363  35.6285 324.4864 15.08840124 28400,6917.88,95.438,541.38,538.11,0.0
52689.0,STARLINK-4078,PAYLOAD,2022-11-18 08:33:15,15.08842577,0.0002372,53.2188,164.0597,35.7309,324.3841,0.00014102,1.957e-05,0.0,0 STARLINK-4078,1 52689U 22053AK  22322.35643381  .00001957  00000-0  14102-3 0  9999,2 52689  53.2188 164.0597 0002372  35.7309 324.3841 15.08842577 28880,6917.873000000001,95.437,541.378,538.097,0.0
